{"fetched_at":"2026-03-29T16:36:15Z","count":15609,"tles":[{"name":"STARLINK-36434","line1":"1 67322U 26002T   26087.64014545  .00041736  00000+0  15160-2 0  9997","line2":"2 67322  42.9988 218.5429 0000871 267.5608  92.5144 15.27614126 13973","category":"Starlink"}]}